COMMENT,ORIGINATOR,NORAD_CAT_ID,OBJECT_NAME,OBJECT_TYPE,CLASSIFICATION_TYPE,INTLDES,EPOCH,EPOCH_MICROSECONDS,MEAN_MOTION,ECCENTRICITY,INCLINATION,RA_OF_ASC_NODE,ARG_OF_PERICENTER,MEAN_ANOMALY,EPHEMERIS_TYPE,ELEMENT_SET_NO,REV_AT_EPOCH,BSTAR,MEAN_MOTION_DOT,MEAN_MOTION_DDOT,FILE,TLE_LINE0,TLE_LINE1,TLE_LINE2,OBJECT_ID,OBJECT_NUMBER,SEMIMAJOR_AXIS,PERIOD,APOGEE,PERIGEE
"GENERATED VIA SPACETRACK.ORG API","JSPOC","4390","COSMOS 343","PAYLOAD","U","70036H","2016-01-10 22:41:48","268320","12.60397577","0.0059238","74.0263","183.2873","78.174","76.2175","0","999","10300","-2.86e-05","-2.1e-07","0","1979034","0 COSMOS 343","1  4390U 70036H   16010.94569755 -.00000021 +00000-0 -28600-4 0  9995","2  4390 074.0263 183.2873 0059238 078.1740 076.2175 12.60397577103005","1970-036H","4390","7799.440","114.249","1467.508","1375.103"
"GENERATED VIA SPACETRACK.ORG API","JSPOC","12474","INTELSAT 501","PAYLOAD","U","81050A","2016-01-10 22:41:52","507104","0.98852426","0.0007379","15.2356","357.8461","213.5716","341.405","0","999","10000","0","-9.5e-07","0","1979034","0 INTELSAT 501","1 12474U 81050A   16010.94574661 -.00000095 +00000-0 +00000-0 0  9997","2 12474 015.2356 357.8461 0007379 213.5716 341.4050 00.98852426100009","1981-050A","12474","42567.383","1456.716","36220.658","36157.837"
"GENERATED VIA SPACETRACK.ORG API","JSPOC","24730","GONETS D1 6","PAYLOAD","U","97006F","2016-01-10 22:41:53","741760","12.62402851","0.0001302","82.6065","159.392","342.9594","17.1452","0","999","87113","-0.0001627","-1.9e-07","0","1978759","0 GONETS D1 6","1 24730U 97006F   16010.94576090 -.00000019  00000-0 -16270-3 0  9997","2 24730  82.6065 159.3920 0001302 342.9594  17.1452 12.62402851871137","1997-006F","24730","7791.179","114.068","1414.058","1412.029"
"GENERATED VIA SPACETRACK.ORG API","JSPOC","7681","COSMOS 714","PAYLOAD","U","75016D","2016-01-10 22:42:00","538848","12.49251387","0.0028695","74.0046","341.0451","96.2361","293.0154","0","999","86369","-8.0449e-05","-2.8e-07","0","1979034","0 COSMOS 714","1  7681U 75016D   16010.94583957 -.00000028 +00000-0 -80449-4 0  9990","2  7681 074.0046 341.0451 0028695 096.2361 293.0154 12.49251387863698","1975-016D","7681","7845.764","115.269","1490.143","1445.116"
"GENERATED VIA SPACETRACK.ORG API","JSPOC","36508","CRYOSAT 2","PAYLOAD","U","10013A","2016-01-10 22:42:05","256288","14.52173246","0.0006639","92.0308","75.8556","338.2022","21.8902","0","999","30524","1.6609e-05","7e-07","0","1979034","0 CRYOSAT 2","1 36508U 10013A   16010.94589417 +.00000070 +00000-0 +16609-4 0  9995","2 36508 092.0308 075.8556 0006639 338.2022 021.8902 14.52173246305247","2010-013A","36508","7096.696","99.161","723.272","713.849"
"GENERATED VIA SPACETRACK.ORG API","JSPOC","1583","THOR ALTAIR R/B","ROCKET BODY","U","65072D","2016-01-10 22:42:07","785216","14.55222298","0.016315","98.2225","148.4606","130.0348","231.5295","0","999","63251","0.00015325","7.41e-06","0","1978746","0 THOR ALTAIR R/B","1 01583U 65072D   16010.94592344  .00000741  00000-0  15325-3 0  9996","2 01583  98.2225 148.4606 0163150 130.0348 231.5295 14.55222298632515","1965-072D","1583","7086.779","98.953","824.265","593.024"
"GENERATED VIA SPACETRACK.ORG API","JSPOC","23687","ARIANE 42L+3 R/B","ROCKET BODY","U","95055B","2016-01-10 22:42:07","624512","2.21685035","0.7246395","5.0072","275.3752","343.2992","2.0493","0","999","16343","0.00017832","-2.1e-07","0","1978792","0 ARIANE 42L+3 R/B","1 23687U 95055B   16010.94592158 -.00000021  00000-0  17832-3 0  9999","2 23687   5.0072 275.3752 7246395 343.2992   2.0493  2.21685035163438","1995-055B","23687","24845.300","649.570","36471.051","463.279"
"GENERATED VIA SPACETRACK.ORG API","JSPOC","23687","ARIANE 42L+3 R/B","ROCKET BODY","U","95055B","2016-01-10 22:42:07","624512","2.21685035","0.7246395","5.0072","275.3752","343.2992","2.0493","0","999","16351","0.00017832","-2.1e-07","0","1979034","0 ARIANE 42L+3 R/B","1 23687U 95055B   16010.94592158 -.00000021 +00000-0 +17832-3 0  9999","2 23687 005.0072 275.3752 7246395 343.2992 002.0493 02.21685035163517","1995-055B","23687","24845.300","649.570","36471.051","463.279"
"GENERATED VIA SPACETRACK.ORG API","JSPOC","25651","GLOBALSTAR M046","PAYLOAD","U","99012C","2016-01-10 22:42:08","561088","12.09319669","0.0002351","52.0069","11.5526","198.2795","177.188","0","999","76707","-5.5222e-05","-9.4e-07","0","1979034","0 GLOBALSTAR M046","1 25651U 99012C   16010.94593242 -.00000094 +00000-0 -55222-4 0  9991","2 25651 052.0069 011.5526 0002351 198.2795 177.1880 12.09319669767070","1999-012C","25651","8017.539","119.075","1641.289","1637.519"
"GENERATED VIA SPACETRACK.ORG API","JSPOC","27540","INTEGRAL","PAYLOAD","U","02048A","2016-01-10 22:42:24","86304","0.377336","0.8050287","52.3336","212.2792","258.9974","0.2377","0","999","1233","0","9.14e-06","0","1977972","0 INTEGRAL","1 27540U 02048A   16010.94611211  .00000914  00000-0  00000+0 0  9998","2 27540  52.3336 212.2792 8050287 258.9974   0.2377  0.37733600 12338","2002-048A","27540","80894.006","3816.227","139637.868","9393.874"
"GENERATED VIA SPACETRACK.ORG API","JSPOC","6845","COSMOS 588","PAYLOAD","U","73069A","2016-01-10 22:42:30","986208","12.48584655","0.0027732","74.001","10.6739","94.5274","289.5435","0","999","92681","-8.0316e-06","-1.7e-07","0","1979034","0 COSMOS 588","1  6845U 73069A   16010.94619197 -.00000017 +00000-0 -80316-5 0  9995","2  6845 074.0010 010.6739 0027732 094.5274 289.5435 12.48584655926815","1973-069A","6845","7848.557","115.330","1492.188","1448.656"
"GENERATED VIA SPACETRACK.ORG API","JSPOC","37190","GLOBALSTAR M076","PAYLOAD","U","10054C","2016-01-10 22:42:45","440928","12.62275374","0.0001737","52.0005","187.3636","125.4193","33.0632","0","999","24181","-7.1989e-06","-1.05e-06","0","1979034","0 GLOBALSTAR M076","1 37190U 10054C   16010.94635927 -.00000105 +00000-0 -71989-5 0  9990","2 37190 052.0005 187.3636 0001737 125.4193 033.0632 12.62275374241813","2010-054C","37190","7791.703","114.079","1414.922","1412.215"
"GENERATED VIA SPACETRACK.ORG API","JSPOC","34942","BREEZE-M R/B","ROCKET BODY","U","09027B","2016-01-10 22:42:47","918880","1.57277587","0.3398415","7.6911","104.0367","275.1461","57.0099","0","999","3822","0","-6.3e-07","0","1979034","0 BREEZE-M R/B","1 34942U 09027B   16010.94638795 -.00000063 +00000-0 +00000-0 0  9999","2 34942 007.6911 104.0367 3398415 275.1461 057.0099 01.57277587038222","2009-027B","34942","31233.737","915.578","35470.122","14241.081"
"GENERATED VIA SPACETRACK.ORG API","JSPOC","14277","SL-12 R/B(AUX MOTOR)","ROCKET BODY","U","83084G","2016-01-10 22:42:55","111680","4.78210196","0.5468953","51.9726","352.4127","128.3966","294.8278","0","999","53537","0.00036933","5.47e-06","0","1979034","0 SL-12 R/B(AUX MOTOR)","1 14277U 83084G   16010.94647120 +.00000547 +00000-0 +36933-3 0  9998","2 14277 051.9726 352.4127 5468953 128.3966 294.8278 04.78210196535373","1983-084G","14277","14881.816","301.122","16642.477","364.886"
"GENERATED VIA SPACETRACK.ORG API","JSPOC","21233","SL-14 R/B","ROCKET BODY","U","91030B","2016-01-10 22:43:03","202176","13.1632782","0.0016486","82.5462","5.3368","340.8667","47.3793","0","999","18745","-0.00040905","-1.44e-06","0","1979034","0 SL-14 R/B","1 21233U 91030B   16010.94656484 -.00000144 +00000-0 -40905-3 0  9990","2 21233 082.5462 005.3368 0016486 340.8667 047.3793 13.16327820187455","1991-030B","21233","7576.915","109.395","1211.272","1186.289"
"GENERATED VIA SPACETRACK.ORG API","JSPOC","12586","SL-3 R/B","ROCKET BODY","U","81065B","2016-01-10 22:43:15","997152","15.09069742","0.0019027","97.4431","359.9706","193.3529","166.7199","0","999","87339","5.5272e-05","8.16e-06","0","1979034","0 SL-3 R/B","1 12586U 81065B   16010.94671293 +.00000816 +00000-0 +55272-4 0  9991","2 12586 097.4431 359.9706 0019027 193.3529 166.7199 15.09069742873394","1981-065B","12586","6917.178","95.423","552.204","525.881"
"GENERATED VIA SPACETRACK.ORG API","JSPOC","16143","COSMOS 1695","PAYLOAD","U","85094F","2016-01-10 22:43:15","300768","12.62886139","0.0008094","82.602","174.1794","124.4711","45.336","0","999","39454","-3.2854e-05","5e-08","0","1979034","0 COSMOS 1695","1 16143U 85094F   16010.94670487 +.00000005 +00000-0 -32854-4 0  9996","2 16143 082.6020 174.1794 0008094 124.4711 045.3360 12.62886139394541","1985-094F","16143","7789.191","114.024","1417.360","1404.751"
"GENERATED VIA SPACETRACK.ORG API","JSPOC","202","TRANSIT 4B","PAYLOAD","U","61031A","2016-01-10 22:43:23","376576","13.63480353","0.010117","32.4394","0.6062","81.2871","279.9195","0","999","70062","2.5603e-05","4.2e-07","0","1979034","0 TRANSIT 4B","1   202U 61031A   16010.94679834 +.00000042 +00000-0 +25603-4 0  9999","2   202 032.4394 000.6062 0101170 081.2871 279.9195 13.63480353700625","1961-031A","202","7401.207","105.612","1097.950","948.194"
"GENERATED VIA SPACETRACK.ORG API","JSPOC","16963","COSMOS 1780 (GLONASS)","PAYLOAD","U","86071C","2016-01-10 22:43:23","438784","2.13101219","0.0004559","64.0907","203.1038","299.5191","57.1292","0","999","22812","0","9.8e-07","0","1979034","0 COSMOS 1780 (GLONASS)","1 16963U 86071C   16010.94679906 +.00000098 +00000-0 +00000-0 0  9992","2 16963 064.0907 203.1038 0004559 299.5191 057.1292 02.13101219228120","1986-071C","16963","25508.086","675.735","19141.580","19118.322"
"GENERATED VIA SPACETRACK.ORG API","JSPOC","23642","MOLNIYA 3-47","PAYLOAD","U","95042A","2016-01-10 22:43:36","957792","2.01140843","0.7506854","62.139","22.9067","279.2822","10.4975","0","999","14966","0.0016842","5.386e-05","0","1978944","0 MOLNIYA 3-47","1 23642U 95042A   16010.94695553  .00005386  00000-0  16842-2 0  9996","2 23642  62.1390  22.9067 7506854 279.2822  10.4975  2.01140843149668","1995-042A","23642","26509.507","715.916","40031.673","231.072"
